start=new Date('2022-08-25T00:00:00.000Z').valueOf();
sats=[{"REF_FRAME":"TEME","COUNTRY_CODE":"US","MEAN_MOTION_DDOT":"0.0000000000000","APOAPSIS":"351.778","OBJECT_TYPE":"PAYLOAD","EPHEMERIS_TYPE":"0","REV_AT_EPOCH":"130","OBJECT_NAME":"STARLINK-4055","BSTAR":"0.00015547000000","ELEMENT_SET_NO":"999","INCLINATION":"53.2140","EPOCH":"2022-08-24T22:00:00.999936","PERIAPSIS":"347.783","RCS_SIZE":"LARGE","NORAD_CAT_ID":"53161","SEMIMAJOR_AXIS":"6727.916","TLE_LINE1":"1 53161U 22083AF  22236.91667824  .00021249  00000-0  15547-3 0  9992","TIME_SYSTEM":"UTC","CENTER_NAME":"EARTH","DECAY_DATE":null,"MEAN_MOTION":"15.73192866","MEAN_MOTION_DOT":"0.00021249","MEAN_ELEMENT_THEORY":"SGP4","LAUNCH_DATE":"2022-07-17","CLASSIFICATION_TYPE":"U","FILE":"3546663","RA_OF_ASC_NODE":"217.1507","MEAN_ANOMALY":"204.3275","ARG_OF_PERICENTER":"9.9433","SITE":"AFETR","GP_ID":"210936464","ECCENTRICITY":"0.00029690","OBJECT_ID":"2022-083AF","PERIOD":"91.534","TLE_LINE2":"2 53161  53.2140 217.1507 0002969   9.9433 204.3275 15.73192866  1305"},{"MEAN_MOTION_DOT":"0.00019447","MEAN_MOTION":"15.73197688","DECAY_DATE":null,"CENTER_NAME":"EARTH","MEAN_ELEMENT_THEORY":"SGP4","LAUNCH_DATE":"2022-07-17","FILE":"3546663","CLASSIFICATION_TYPE":"U","RA_OF_ASC_NODE":"217.1581","MEAN_ANOMALY":"199.6275","GP_ID":"210937339","ECCENTRICITY":"0.00029440","SITE":"AFETR","ARG_OF_PERICENTER":"12.1664","TLE_LINE2":"2 53162  53.2144 217.1581 0002944  12.1664 199.6275 15.73197688  1300","PERIOD":"91.533","OBJECT_ID":"2022-083AG","REF_FRAME":"TEME","MEAN_MOTION_DDOT":"0.0000000000000","APOAPSIS":"351.747","COUNTRY_CODE":"US","EPHEMERIS_TYPE":"0","OBJECT_TYPE":"PAYLOAD","BSTAR":"0.00014266000000","OBJECT_NAME":"STARLINK-4114","REV_AT_EPOCH":"130","INCLINATION":"53.2144","ELEMENT_SET_NO":"999","RCS_SIZE":"LARGE","PERIAPSIS":"347.786","EPOCH":"2022-08-24T22:00:00.999936","TLE_LINE1":"1 53162U 22083AG  22236.91667824  .00019447  00000-0  14266-3 0  9997","SEMIMAJOR_AXIS":"6727.902","NORAD_CAT_ID":"53162","TIME_SYSTEM":"UTC"},{"OBJECT_TYPE":"PAYLOAD","EPHEMERIS_TYPE":"0","OBJECT_NAME":"STARLINK-4104","REV_AT_EPOCH":"130","BSTAR":"0.00013529000000","REF_FRAME":"TEME","COUNTRY_CODE":"US","APOAPSIS":"351.441","MEAN_MOTION_DDOT":"0.0000000000000","NORAD_CAT_ID":"53163","SEMIMAJOR_AXIS":"6727.863","TLE_LINE1":"1 53163U 22083AH  22236.91667824  .00018418  00000-0  13529-3 0  9996","TIME_SYSTEM":"UTC","ELEMENT_SET_NO":"999","INCLINATION":"53.2142","EPOCH":"2022-08-24T22:00:00.999936","PERIAPSIS":"348.016","RCS_SIZE":"LARGE","CLASSIFICATION_TYPE":"U","FILE":"3546663","CENTER_NAME":"EARTH","DECAY_DATE":null,"MEAN_MOTION":"15.73211115","MEAN_MOTION_DOT":"0.00018418","MEAN_ELEMENT_THEORY":"SGP4","LAUNCH_DATE":"2022-07-17","OBJECT_ID":"2022-083AH","PERIOD":"91.533","TLE_LINE2":"2 53163  53.2142 217.1499 0002545  17.5780 197.8075 15.73211115  1302","MEAN_ANOMALY":"197.8075","RA_OF_ASC_NODE":"217.1499","ARG_OF_PERICENTER":"17.5780","SITE":"AFETR","ECCENTRICITY":"0.00025450","GP_ID":"210936610"},{"INCLINATION":"53.2137","ELEMENT_SET_NO":"999","RCS_SIZE":"LARGE","PERIAPSIS":"347.890","EPOCH":"2022-08-24T22:00:00.999936","TLE_LINE1":"1 53164U 22083AJ  22236.91667824  .00053834  00000-0  38569-3 0  9999","SEMIMAJOR_AXIS":"6727.931","NORAD_CAT_ID":"53164","TIME_SYSTEM":"UTC","REF_FRAME":"TEME","APOAPSIS":"351.702","MEAN_MOTION_DDOT":"0.0000000000000","COUNTRY_CODE":"US","EPHEMERIS_TYPE":"0","OBJECT_TYPE":"PAYLOAD","BSTAR":"0.00038569000000","REV_AT_EPOCH":"130","OBJECT_NAME":"STARLINK-4116","RA_OF_ASC_NODE":"217.1502","MEAN_ANOMALY":"194.7363","GP_ID":"210936732","ECCENTRICITY":"0.00028330","SITE":"AFETR","ARG_OF_PERICENTER":"18.8561","TLE_LINE2":"2 53164  53.2137 217.1502 0002833  18.8561 194.7363 15.73187594  1302","PERIOD":"91.534","OBJECT_ID":"2022-083AJ","MEAN_MOTION_DOT":"0.00053834","MEAN_MOTION":"15.73187594","DECAY_DATE":null,"CENTER_NAME":"EARTH","MEAN_ELEMENT_THEORY":"SGP4","LAUNCH_DATE":"2022-07-17","FILE":"3546663","CLASSIFICATION_TYPE":"U"},{"REF_FRAME":"TEME","APOAPSIS":"351.491","MEAN_MOTION_DDOT":"0.0000000000000","COUNTRY_CODE":"US","EPHEMERIS_TYPE":"0","OBJECT_TYPE":"PAYLOAD","BSTAR":"0.00041072000000","REV_AT_EPOCH":"130","OBJECT_NAME":"STARLINK-4090","INCLINATION":"53.2138","ELEMENT_SET_NO":"999","RCS_SIZE":"LARGE","PERIAPSIS":"348.034","EPOCH":"2022-08-24T22:00:00.999936","TLE_LINE1":"1 53165U 22083AK  22236.91667824  .00057420  00000-0  41072-3 0  9998","SEMIMAJOR_AXIS":"6727.898","NORAD_CAT_ID":"53165","TIME_SYSTEM":"UTC","MEAN_MOTION_DOT":"0.00057420","MEAN_MOTION":"15.73199134","DECAY_DATE":null,"CENTER_NAME":"EARTH","MEAN_ELEMENT_THEORY":"SGP4","LAUNCH_DATE":"2022-07-17","FILE":"3546663","CLASSIFICATION_TYPE":"U","MEAN_ANOMALY":"200.7388","RA_OF_ASC_NODE":"217.1450","GP_ID":"210936878","ECCENTRICITY":"0.00025690","SITE":"AFETR","ARG_OF_PERICENTER":"15.8057","TLE_LINE2":"2 53165  53.2138 217.1450 0002569  15.8057 200.7388 15.73199134  1307","PERIOD":"91.533","OBJECT_ID":"2022-083AK"},{"PERIOD":"91.531","TLE_LINE2":"2 53166  53.2140 217.1497 0002762  19.4657 195.3291 15.73240309  1306","OBJECT_ID":"2022-083AL","MEAN_ANOMALY":"195.3291","RA_OF_ASC_NODE":"217.1497","SITE":"AFETR","GP_ID":"210937172","ECCENTRICITY":"0.00027620","ARG_OF_PERICENTER":"19.4657","CLASSIFICATION_TYPE":"U","FILE":"3546663","MEAN_MOTION":"15.73240309","MEAN_MOTION_DOT":"-0.00019889","CENTER_NAME":"EARTH","DECAY_DATE":null,"LAUNCH_DATE":"2022-07-17","MEAN_ELEMENT_THEORY":"SGP4","SEMIMAJOR_AXIS":"6727.780","TLE_LINE1":"1 53166U 22083AL  22236.91667824 -.00019889  00000-0 -13734-3 0  9992","NORAD_CAT_ID":"53166","TIME_SYSTEM":"UTC","INCLINATION":"53.2140","ELEMENT_SET_NO":"999","RCS_SIZE":"LARGE","EPOCH":"2022-08-24T22:00:00.999936","PERIAPSIS":"347.787","OBJECT_TYPE":"PAYLOAD","EPHEMERIS_TYPE":"0","BSTAR":"-0.00013734000000","REV_AT_EPOCH":"130","OBJECT_NAME":"STARLINK-4110","REF_FRAME":"TEME","APOAPSIS":"351.503","MEAN_MOTION_DDOT":"0.0000000000000","COUNTRY_CODE":"US"},{"RCS_SIZE":"LARGE","EPOCH":"2022-08-24T22:00:00.999936","PERIAPSIS":"347.574","INCLINATION":"53.2136","ELEMENT_SET_NO":"999","TIME_SYSTEM":"UTC","SEMIMAJOR_AXIS":"6727.777","TLE_LINE1":"1 53167U 22083AM  22236.91667824 -.00045113  00000-0 -31806-3 0  9992","NORAD_CAT_ID":"53167","APOAPSIS":"351.710","MEAN_MOTION_DDOT":"0.0000000000000","COUNTRY_CODE":"US","REF_FRAME":"TEME","BSTAR":"-0.00031806000000","REV_AT_EPOCH":"130","OBJECT_NAME":"STARLINK-3683","OBJECT_TYPE":"PAYLOAD","EPHEMERIS_TYPE":"0","SITE":"AFETR","ECCENTRICITY":"0.00030740","GP_ID":"210937024","ARG_OF_PERICENTER":"17.5196","MEAN_ANOMALY":"202.0510","RA_OF_ASC_NODE":"217.1384","PERIOD":"91.531","TLE_LINE2":"2 53167  53.2136 217.1384 0003074  17.5196 202.0510 15.73241509  1304","OBJECT_ID":"2022-083AM","MEAN_ELEMENT_THEORY":"SGP4","LAUNCH_DATE":"2022-07-17","MEAN_MOTION":"15.73241509","MEAN_MOTION_DOT":"-0.00045113","CENTER_NAME":"EARTH","DECAY_DATE":null,"CLASSIFICATION_TYPE":"U","FILE":"3546663"},{"MEAN_MOTION":"15.73218048","MEAN_MOTION_DOT":"0.00032127","CENTER_NAME":"EARTH","DECAY_DATE":null,"LAUNCH_DATE":"2022-07-17","MEAN_ELEMENT_THEORY":"SGP4","CLASSIFICATION_TYPE":"U","FILE":"3546663","RA_OF_ASC_NODE":"217.1492","MEAN_ANOMALY":"202.1171","SITE":"AFETR","ECCENTRICITY":"0.00026270","GP_ID":"210936319","ARG_OF_PERICENTER":"13.8431","PERIOD":"91.532","TLE_LINE2":"2 53168  53.2143 217.1492 0002627  13.8431 202.1171 15.73218048  1303","OBJECT_ID":"2022-083AN","REF_FRAME":"TEME","APOAPSIS":"351.476","MEAN_MOTION_DDOT":"0.0000000000000","COUNTRY_CODE":"US","OBJECT_TYPE":"PAYLOAD","EPHEMERIS_TYPE":"0","BSTAR":"0.00023225000000","REV_AT_EPOCH":"130","OBJECT_NAME":"STARLINK-4105","INCLINATION":"53.2143","ELEMENT_SET_NO":"999","RCS_SIZE":"LARGE","EPOCH":"2022-08-24T22:00:00.999936","PERIAPSIS":"347.941","SEMIMAJOR_AXIS":"6727.844","TLE_LINE1":"1 53168U 22083AN  22236.91667824  .00032127  00000-0  23225-3 0  9998","NORAD_CAT_ID":"53168","TIME_SYSTEM":"UTC"},{"CLASSIFICATION_TYPE":"U","FILE":"3546663","MEAN_MOTION":"15.73256976","MEAN_MOTION_DOT":"-0.00030442","CENTER_NAME":"EARTH","DECAY_DATE":null,"MEAN_ELEMENT_THEORY":"SGP4","LAUNCH_DATE":"2022-07-17","PERIOD":"91.530","TLE_LINE2":"2 53169  53.2143 217.1428 0003889   9.1581 209.7956 15.73256976  1304","OBJECT_ID":"2022-083AP","MEAN_ANOMALY":"209.7956","RA_OF_ASC_NODE":"217.1428","SITE":"AFETR","ECCENTRICITY":"0.00038890","GP_ID":"210936465","ARG_OF_PERICENTER":"9.1581","OBJECT_TYPE":"PAYLOAD","EPHEMERIS_TYPE":"0","BSTAR":"-0.00021261000000","OBJECT_NAME":"STARLINK-4117","REV_AT_EPOCH":"130","REF_FRAME":"TEME","APOAPSIS":"352.214","MEAN_MOTION_DDOT":"0.0000000000000","COUNTRY_CODE":"US","SEMIMAJOR_AXIS":"6727.733","TLE_LINE1":"1 53169U 22083AP  22236.91667824 -.00030442  00000-0 -21261-3 0  9997","NORAD_CAT_ID":"53169","TIME_SYSTEM":"UTC","INCLINATION":"53.2143","ELEMENT_SET_NO":"999","RCS_SIZE":"LARGE","EPOCH":"2022-08-24T22:00:00.999936","PERIAPSIS":"346.981"},{"ARG_OF_PERICENTER":"19.0555","SITE":"AFETR","GP_ID":"210937340","ECCENTRICITY":"0.00028330","RA_OF_ASC_NODE":"217.1490","MEAN_ANOMALY":"198.0971","OBJECT_ID":"2022-083AQ","PERIOD":"91.533","TLE_LINE2":"2 53170  53.2147 217.1490 0002833  19.0555 198.0971 15.73201214  1300","LAUNCH_DATE":"2022-07-17","MEAN_ELEMENT_THEORY":"SGP4","CENTER_NAME":"EARTH","DECAY_DATE":null,"MEAN_MOTION":"15.73201214","MEAN_MOTION_DOT":"0.00054547","CLASSIFICATION_TYPE":"U","FILE":"3546663","EPOCH":"2022-08-24T22:00:00.999936","PERIAPSIS":"347.851","RCS_SIZE":"LARGE","ELEMENT_SET_NO":"999","INCLINATION":"53.2147","TIME_SYSTEM":"UTC","NORAD_CAT_ID":"53170","SEMIMAJOR_AXIS":"6727.892","TLE_LINE1":"1 53170U 22083AQ  22236.91667824  .00054547  00000-0  39048-3 0  9991","COUNTRY_CODE":"US","APOAPSIS":"351.663","MEAN_MOTION_DDOT":"0.0000000000000","REF_FRAME":"TEME","REV_AT_EPOCH":"130","OBJECT_NAME":"STARLINK-4095","BSTAR":"0.00039048000000","OBJECT_TYPE":"PAYLOAD","EPHEMERIS_TYPE":"0"}];
